FENGYUN 1C DEB          
1 30093U 99025QW  17345.87413727  .00000337  00000-0  13627-3 0  9994
2 30093  98.7774  93.5603 0081907 289.3423 192.6947 14.32529945568732
